STARLINK-2447           
1 48110U 21027U   24030.34298442 -.00002701  00000+0 -16251-3 0  9990
2 48110  53.0554  15.3495 0001672  75.0381 285.0793 15.06390484156607
STARLINK-2448           
1 48111U 21027V   24030.33561274  .00002740  00000+0  20273-3 0  9996
2 48111  53.0563  15.3560 0001470  83.5763 276.5394 15.06411435156607
STARLINK-2449           
1 48112U 21027W   24030.26238872  .00003326  00000+0  24200-3 0  9999
2 48112  53.0560  30.8785 0001614  80.2287 279.8884 15.06407473156372
STARLINK-2450           
1 48113U 21027X   24030.26466757  .00006646  00000+0  46447-3 0  9990
2 48113  53.0560  25.7006 0001690  97.2088 262.9093 15.06415718156436
STARLINK-2452           
1 48115U 21027Z   24030.38721260  .00010568  00000+0  72686-3 0  9990
2 48115  53.0567  15.1629 0001455  96.4101 263.7054 15.06423864156601
STARLINK-2454           
1 48116U 21027AA  24030.26097924  .00006198  00000+0  43443-3 0  9994
2 48116  53.0558  25.7213 0001499  86.1292 273.9868 15.06417138156448
STARLINK-2455           
1 48117U 21027AB  24030.29873011  .00003936  00000+0  28288-3 0  9994
2 48117  53.0564   5.5404 0001496  96.4813 263.6346 15.06415983156739
STARLINK-2458           
1 48118U 21027AC  24030.31073212  .00005570  00000+0  39233-3 0  9991
2 48118  53.0559   5.4914 0001456  95.4278 264.6877 15.06417979156736
STARLINK-2459           
1 48119U 21027AD  24030.30610132  .00006292  00000+0  44077-3 0  9993
2 48119  53.0560   5.4998 0001520 100.5772 259.5388 15.06414593156728
STARLINK-2460           
1 48120U 21027AE  24030.37892284  .00004055  00000+0  29085-3 0  9999
2 48120  53.0561  25.1851 0001657  91.4038 268.7141 15.06416429156473
STARLINK-2462           
1 48121U 21027AF  24030.21767454  .00009386  00000+0  64811-3 0  9991
2 48121  53.0561  15.9111 0001521  82.6646 277.4516 15.06403371156573
STARLINK-2463           
1 48122U 21027AG  24030.21628023  .00002795  00000+0  20639-3 0  9997
2 48122  53.0561  10.8861 0001449  90.0867 270.0288 15.06416684156652
STARLINK-2464           
1 48123U 21027AH  24030.29230817  .00011096  00000+0  76229-3 0  9996
2 48123  53.0558   5.5757 0001320  95.4043 264.7097 15.06416279156734
STARLINK-2465           
1 48124U 21027AJ  24030.22503874  .00004887  00000+0  34668-3 0  9997
2 48124  53.0556  15.8784 0001413  76.5270 283.5876 15.06405463156571
STARLINK-2466           
1 48125U 21027AK  24030.30523847  .00005274  00000+0  37264-3 0  9995
2 48125  53.0555  25.7551 0001409  91.1727 268.9424 15.06408137156452
STARLINK-2467           
1 48126U 21027AL  24030.19279688  .00004345  00000+0  31031-3 0  9998
2 48126  53.0560   6.0240 0001460  89.3835 270.7321 15.06409871156725
STARLINK-2468           
1 48127U 21027AM  24030.38261433  .00004463  00000+0  31821-3 0  9997
2 48127  53.0558  25.1739 0001656  79.3993 280.7183 15.06412879156469
STARLINK-2469           
1 48128U 21027AN  24030.09787829  .00017896  00000+0  12162-2 0  9998
2 48128  53.0545 316.5376 0001139  86.9226 273.1893 15.06431579157394
STARLINK-2471           
1 48129U 21027AP  24030.37524892  .00004258  00000+0  30456-3 0  9994
2 48129  53.0540  25.2007 0001653 107.5695 252.5474 15.06402452156467
STARLINK-2472           
1 48130U 21027AQ  24030.23191991  .00005127  00000+0  36264-3 0  9990
2 48130  53.0545  30.8457 0001680 101.4576 258.6601 15.06420954156372
STARLINK-2473           
1 48131U 21027AR  24030.31810403  .00007085  00000+0  49397-3 0  9992
2 48131  53.0552   5.4596 0001220  94.7162 265.3966 15.06408403156732
STARLINK-2474           
1 48132U 21027AS  24030.36418440  .00002677  00000+0  19849-3 0  9994
2 48132  53.0551  25.2532 0001476  95.9827 264.1331 15.06411039156457
STARLINK-2475           
1 48133U 21027AT  24030.36049891  .00003883  00000+0  27936-3 0  9991
2 48133  53.0550  25.2667 0001545  94.5169 265.5997 15.06409443156467
STARLINK-2476           
1 48134U 21027AU  24030.21305965  .00005639  00000+0  39700-3 0  9996
2 48134  53.0543  25.9255 0001327  80.8608 279.2531 15.06413858156432
STARLINK-2478           
1 48135U 21027AV  24030.28082483  .00001377  00000+0  11131-3 0  9994
2 48135  53.0569  30.7949 0001703 116.9868 243.1295 15.06401201156371
STARLINK-2479           
1 48136U 21027AW  24030.21106497  .00003163  00000+0  24113-3 0  9999
2 48136  53.0564  26.3476 0001602  85.9391 274.1781 15.04778850156433
STARLINK-2480           
1 48137U 21027AX  24030.32916288  .00002717  00000+0  20111-3 0  9997
2 48137  53.0567   5.3805 0001736 101.0324 259.0860 15.06417362156737
STARLINK-2481           
1 48138U 21027AY  24030.29045909  .00007768  00000+0  53960-3 0  9996
2 48138  53.0556  25.5860 0001457  89.1973 270.9183 15.06415597156454
STARLINK-2482           
1 48139U 21027AZ  24030.21490029  .00005344  00000+0  37720-3 0  9990
2 48139  53.0568   5.9236 0001549 103.1607 256.9555 15.06415686156726
STARLINK-2483           
1 48140U 21027BA  24030.36793934  .00005179  00000+0  36618-3 0  9990
2 48140  53.0552  25.7874 0001598  92.7701 267.3471 15.06411399156451
STARLINK-2484           
1 48141U 21027BB  24030.40472013  .00001826  00000+0  14139-3 0  9997
2 48141  53.0564  25.0739 0001625 101.3323 258.7849 15.06413126156482
STARLINK-2485           
1 48142U 21027BC  24030.14487108  .00010009  00000+0  68964-3 0  9998
2 48142  53.0565   6.2375 0001342  95.0181 265.0961 15.06411671156713
STARLINK-2486           
1 48143U 21027BD  24030.20247147  .00004564  00000+0  32491-3 0  9998
2 48143  53.0549 321.0807 0001265 110.4600 249.6525 15.06420122157341
STARLINK-2487           
1 48144U 21027BE  24030.21858895  .00005034  00000+0  35645-3 0  9995
2 48144  53.0569   5.9113 0001399 104.7330 255.3814 15.06412773156714
STARLINK-2488           
1 48145U 21027BF  24030.35496021  .00012299  00000+0  84249-3 0  9995
2 48145  53.0559   5.2959 0001420  79.8780 280.2369 15.06429082156747
STARLINK-2489           
1 48146U 21027BG  24030.35312596  .00007293  00000+0  50770-3 0  9990
2 48146  53.0552  25.3059 0001671  91.3483 268.7697 15.06423077156464
STARLINK-2490           
1 48147U 21027BH  24030.28446949  .00001991  00000+0  15248-3 0  9993
2 48147  53.0563  30.6154 0001451  99.2867 260.8286 15.06411893156382
STARLINK-2491           
1 48148U 21027BJ  24030.38629822  .00003899  00000+0  28043-3 0  9994
2 48148  53.0568  25.1588 0001761  90.3253 269.7938 15.06414636156451
STARLINK-2492           
1 48149U 21027BK  24030.33285007  .00006683  00000+0  46687-3 0  9991
2 48149  53.0563   5.3928 0001629 106.0256 254.0913 15.06418040156730
STARLINK-2493           
1 48150U 21027BL  24030.33653007  .00004243  00000+0  30341-3 0  9992
2 48150  53.0568   5.3797 0001490  96.7631 263.3528 15.06422845156743
STARLINK-2503           
1 48151U 21027BM  24030.34022304 -.00004125  00000+0 -25827-3 0  9998
2 48151  53.0559   5.3605 0001466 101.5003 258.6151 15.06390774156747
STARLINK-2567           
1 48276U 21036A   24030.18219831  .00007337  00000+0  51070-3 0  9996
2 48276  53.0535 261.0726 0001359  96.1025 264.0118 15.06419016152828
STARLINK-2569           
1 48277U 21036B   24030.51531858  .00003610  00000+0  26126-3 0  9994
2 48277  53.0527 224.5752 0001340  85.7962 274.3180 15.06382349153368
STARLINK-2543           
1 48278U 21036C   24030.08822971  .00002619  00000+0  19471-3 0  9999
2 48278  53.0533 241.5746 0001262  95.0780 265.0353 15.06391204153081
STARLINK-2580           
1 48279U 21036D   24030.01448023  .00000760  00000+0  69925-4 0  9990
2 48279  53.0561 241.8197 0001529 113.7066 246.4083 15.06403657153075
STARLINK-2565           
1 48280U 21036E   24029.21187558  .00000756  00000+0  69656-4 0  9991
2 48280  53.0562 315.4279 0001316  82.3004 277.8134 15.06394139151970
STARLINK-2520           
1 48281U 21036F   24029.75555661  .00006493  00000+0  45436-3 0  9998
2 48281  53.0565 292.9861 0001318  95.7689 264.3451 15.06403811152331
STARLINK-2558           
1 48282U 21036G   24030.04443658  .00010850  00000+0  74588-3 0  9997
2 48282  53.0549 296.6964 0001273  91.6376 268.4759 15.06412967152313
STARLINK-2516           
1 48283U 21036H   24030.04075344  .00014731  00000+0  10055-2 0  9991
2 48283  53.0545 296.7075 0001161  90.6329 269.4793 15.06408681152314
STARLINK-2564           
1 48284U 21036J   24029.77168538  .00019505  00000+0  13244-2 0  9995
2 48284  53.0543 297.9194 0001279  88.4399 271.6736 15.06409070152269
STARLINK-2548           
1 48285U 21036K   24030.03243653  .00010792  00000+0  74198-3 0  9994
2 48285  53.0553 296.7370 0001398  90.1444 269.9705 15.06414944152304
STARLINK-2547           
1 48286U 21036L   24029.75110936  .00004774  00000+0  35405-3 0  9990
2 48286  53.0548 297.8659 0001405  98.4006 261.7141 15.04772446152266
STARLINK-2566           
1 48287U 21036M   24029.76061235  .00023092  00000+0  15628-2 0  9997
2 48287  53.0545 297.9731 0001076  62.1508 297.9589 15.06430197152268
STARLINK-2562           
1 48288U 21036N   24030.02970334  .00008856  00000+0  61243-3 0  9994
2 48288  53.0533 296.8324 0001498  98.7287 261.3871 15.06413439152303
STARLINK-2545           
1 48289U 21036P   24030.01863442  .00006933  00000+0  48357-3 0  9990
2 48289  53.0546 296.8054 0001419 108.7940 251.3203 15.06420868152301
STARLINK-2540           
1 48290U 21036Q   24029.01975506  .00007627  00000+0  53043-3 0  9994
2 48290  53.0548 301.2892 0001432  99.3171 260.7980 15.06395389152150
STARLINK-2555           
1 48291U 21036R   24029.01606537  .00003927  00000+0  28237-3 0  9996
2 48291  53.0545 301.3143 0001722 124.1925 235.9228 15.06400856152159
STARLINK-2542           
1 48292U 21036S   24029.75695772  .00012762  00000+0  87405-3 0  9996
2 48292  53.0548 298.1440 0001236  96.7848 263.3282 15.06402703152848
STARLINK-2550           
1 48293U 21036T   24030.13658480  .00013605  00000+0  92993-3 0  9991
2 48293  53.0535 296.2746 0001390  92.8022 267.3126 15.06422660152323
